NORAD_CAT_ID,OBJECT_NAME,OBJECT_TYPE,EPOCH,MEAN_MOTION,ECCENTRICITY,INCLINATION,RA_OF_ASC_NODE,ARG_OF_PERICENTER,MEAN_ANOMALY,BSTAR,MEAN_MOTION_DOT,MEAN_MOTION_DDOT,TLE_LINE0,TLE_LINE1,TLE_LINE2,SEMIMAJOR_AXIS,PERIOD,APOGEE,PERIGEE,DECAYED
53396.0,STARLINK-4524,PAYLOAD,2022-09-29 14:00:01,15.0881733,0.000212,53.2191,7.4804,41.4297,323.0297,0.00070966,0.00011017,0.0,0 STARLINK-4524,1 53396U 22097J   22272.58334491  .00011017  00000-0  70966-3 0  9999,2 53396  53.2191   7.4804 0002120  41.4297 323.0297 15.08817330  8240,6917.95,95.439,541.281,538.3480000000002,0.0
53396.0,STARLINK-4524,PAYLOAD,2022-09-29 22:00:00,15.08848767,0.0002068,53.2187,5.9832,40.642,335.3871,-0.0012928,-0.0002081,0.0,0 STARLINK-4524,1 53396U 22097J   22272.91667824 -.00020810  00000-0 -12928-2 0  9991,2 53396  53.2187   5.9832 0002068  40.6420 335.3871 15.08848767  1301,6917.854,95.437,541.149,538.288,0.0
53396.0,STARLINK-4524,PAYLOAD,2022-09-30 14:00:01,15.08863614,0.0002171,53.2187,2.9915,40.8267,358.4062,-0.00044568,-7.379e-05,0.0,0 STARLINK-4524,1 53396U 22097J   22273.58334491 -.00007379  00000-0 -44568-3 0  9997,2 53396  53.2187   2.9915 0002171  40.8267 358.4062 15.08863614  1302,6917.808000000001,95.436,541.175,538.1709999999998,0.0
53396.0,STARLINK-4524,PAYLOAD,2022-09-30 16:00:00,15.08854031,0.0002165999999999,53.2188,2.6176,39.0129,93.1288,0.00075868,0.00011812,0.0,0 STARLINK-4524,1 53396U 22097J   22273.66667824  .00011812  00000-0  75868-3 0  9997,2 53396  53.2188   2.6176 0002166  39.0129  93.1288 15.08854031  8404,6917.8380000000025,95.437,541.201,538.2040000000002,0.0
53396.0,STARLINK-4524,PAYLOAD,2022-09-30 22:00:00,15.08868756,0.0002056999999999,53.2186,1.494,38.9137,11.9438,-0.0011843,-0.00019102,0.0,0 STARLINK-4524,1 53396U 22097J   22273.91667824 -.00019102  00000-0 -11843-2 0  9999,2 53396  53.2186   1.4940 0002057  38.9137  11.9438 15.08868756  1300,6917.792,95.436,541.08,538.235,0.0
53396.0,STARLINK-4524,PAYLOAD,2022-10-01 14:00:01,15.08855262,0.000214,53.2188,358.5023,35.8384,38.253,-0.00063103,-0.00010322,0.0,0 STARLINK-4524,1 53396U 22097J   22274.58334491 -.00010322  00000-0 -63103-3 0  9996,2 53396  53.2188 358.5023 0002140  35.8384  38.2530 15.08855262  8549,6917.834,95.437,541.179,538.2180000000002,0.0
53396.0,STARLINK-4524,PAYLOAD,2022-10-01 22:00:00,15.08863235,0.0002049,53.2189,357.0047,35.7294,49.9661,-0.0054689,-0.00086341,0.0,0 STARLINK-4524,1 53396U 22097J   22274.91667824 -.00086341  00000-0 -54689-2 0  9994,2 53396  53.2189 357.0047 0002049  35.7294  49.9661 15.08863235  1307,6917.809,95.436,541.092,538.257,0.0
53396.0,STARLINK-4524,PAYLOAD,2022-10-02 06:00:00,15.08808404,0.0002036,53.2191,355.5076,41.2891,55.9902,0.0017144,0.00027079,0.0,0 STARLINK-4524,1 53396U 22097J   22275.25001157  .00027079  00000-0  17144-2 0  9999,2 53396  53.2191 355.5076 0002036  41.2891  55.9902 15.08808404  8642,6917.977,95.44,541.25,538.433,0.0
53396.0,STARLINK-4524,PAYLOAD,2022-10-02 14:00:01,15.08811726,0.000226,53.2192,354.0131,37.4872,71.3637,0.0022745,0.00036069,0.0,0 STARLINK-4524,1 53396U 22097J   22275.58334491  .00036069  00000-0  22745-2 0  9997,2 53396  53.2192 354.0131 0002260  37.4872  71.3637 15.08811726  1308,6917.967,95.439,541.395,538.268,0.0
53396.0,STARLINK-4524,PAYLOAD,2022-10-02 22:00:00,15.08853081,0.0002158,53.2193,352.5156,38.0326,82.3955,-0.00031659,-5.325e-05,0.0,0 STARLINK-4524,1 53396U 22097J   22275.91667824 -.00005325  00000-0 -31659-3 0  9991,2 53396  53.2193 352.5156 0002158  38.0326  82.3955 15.08853081  1301,6917.84,95.437,541.198,538.2130000000002,0.0
53396.0,STARLINK-4524,PAYLOAD,2022-10-03 14:00:01,15.0885005,0.0002244,53.2197,349.5241,34.4643,109.1959,0.0011095,0.00017419,0.0,0 STARLINK-4524,1 53396U 22097J   22276.58334491  .00017419  00000-0  11095-2 0  9992,2 53396  53.2197 349.5241 0002244  34.4643 109.1959 15.08850050  1309,6917.85,95.437,541.2669999999998,538.1619999999998,0.0
53396.0,STARLINK-4524,PAYLOAD,2022-10-03 22:00:00,15.08866573,0.0002037,53.2197,348.0264,32.8326,122.4446,-0.0035741999999999,-0.00056766,0.0,0 STARLINK-4524,1 53396U 22097J   22276.91667824 -.00056766  00000-0 -35742-2 0  9993,2 53396  53.2197 348.0264 0002037  32.8326 122.4446 15.08866573  1304,6917.799,95.436,541.073,538.255,0.0
53396.0,STARLINK-4524,PAYLOAD,2022-10-04 06:00:00,15.08847659,0.0001971,53.2199,346.5299,33.8217,133.05200000000002,0.00044663,6.829e-05,0.0,0 STARLINK-4524,1 53396U 22097J   22277.25001157  .00006829  00000-0  44663-3 0  9998,2 53396  53.2199 346.5299 0001971  33.8217 133.0520 15.08847659  8945,6917.857,95.437,541.085,538.3580000000002,0.0
53396.0,STARLINK-4524,PAYLOAD,2022-10-04 14:00:01,15.088383300000002,0.0002165,53.2198,345.0351,29.5486,148.9386,-0.00062307,-0.00010191,0.0,0 STARLINK-4524,1 53396U 22097J   22277.58334491 -.00010191  00000-0 -62307-3 0  9998,2 53396  53.2198 345.0351 0002165  29.5486 148.9386 15.08838330  1307,6917.885,95.438,541.248,538.253,0.0
53396.0,STARLINK-4524,PAYLOAD,2022-10-04 22:00:00,15.08824419,0.0002083,53.2196,343.5375,33.0818,156.9946,8.4174e-05,1.051e-05,0.0,0 STARLINK-4524,1 53396U 22097J   22277.91667824  .00001051  00000-0  84174-4 0  9994,2 53396  53.2196 343.5375 0002083  33.0818 156.9946 15.08824419  1306,6917.928000000001,95.439,541.234,538.352,0.0
53396.0,STARLINK-4524,PAYLOAD,2022-10-05 14:00:01,15.08812246,0.0002246,53.2196,340.5465,33.6199,179.6705,0.0010031,0.000157,0.0,0 STARLINK-4524,1 53396U 22097J   22278.58335648  .00015700  00000-0  10031-2 0  9999,2 53396  53.2196 340.5465 0002246  33.6199 179.6705 15.08812246  1302,6917.965,95.439,541.384,538.276,0.0
53396.0,STARLINK-4524,PAYLOAD,2022-10-05 22:00:00,15.08811028,0.0002025,53.2194,339.0488,34.1806,190.6176,0.00066688,0.00010333,0.0,0 STARLINK-4524,1 53396U 22097J   22278.91667824  .00010333  00000-0  66688-3 0  9997,2 53396  53.2194 339.0488 0002025  34.1806 190.6176 15.08811028  1306,6917.969,95.439,541.235,538.433,0.0
53396.0,STARLINK-4524,PAYLOAD,2022-10-06 06:00:00,15.08842725,0.0002016,53.2193,337.5529,37.3134,199.0483,0.00061393,9.497e-05,0.0,0 STARLINK-4524,1 53396U 22097J   22279.25001157  .00009497  00000-0  61393-3 0  9993,2 53396  53.2193 337.5529 0002016  37.3134 199.0483 15.08842725  9246,6917.871999999999,95.437,541.132,538.342,0.0
53396.0,STARLINK-4524,PAYLOAD,2022-10-06 14:00:01,15.08843272,0.0002197,53.2191,336.0581,32.1473,215.8201,0.00055851,8.613e-05,0.0,0 STARLINK-4524,1 53396U 22097J   22279.58334491  .00008613  00000-0  55851-3 0  9990,2 53396  53.2191 336.0581 0002197  32.1473 215.8201 15.08843272  1307,6917.87,95.437,541.255,538.216,0.0
53396.0,STARLINK-4524,PAYLOAD,2022-10-06 22:42:55,15.08815543,0.0001942,53.2188,334.4264,31.6704,29.8216,0.0013291,0.00020914,0.0,0 STARLINK-4524,1 53396U 22097J   22279.94646991  .00020914  00000-0  13291-2 0  9990,2 53396  53.2188 334.4264 0001942  31.6704  29.8216 15.08815543  1300,6917.955,95.439,541.164,538.477,0.0
53396.0,STARLINK-4524,PAYLOAD,2022-10-07 06:00:00,15.08860551,0.000193,53.2187,333.0643,32.4686,238.6866,-0.0022772,-0.00036368,0.0,0 STARLINK-4524,1 53396U 22097J   22280.25001157 -.00036368  00000-0 -22772-2 0  9991,2 53396  53.2187 333.0643 0001930  32.4686 238.6866 15.08860551  9397,6917.818,95.436,541.018,538.347,0.0
53396.0,STARLINK-4524,PAYLOAD,2022-10-07 14:00:01,15.08808487,0.0002169,53.2184,331.5694,28.2948,254.4725,0.003346,0.00053321,0.0,0 STARLINK-4524,1 53396U 22097J   22280.58334491  .00053321  00000-0  33460-2 0  9999,2 53396  53.2184 331.5694 0002169  28.2948 254.4725 15.08808487  1305,6917.977,95.44,541.342,538.341,0.0
53396.0,STARLINK-4524,PAYLOAD,2022-10-07 22:00:00,15.08823924,0.0002049,53.2183,330.0714,32.3344,262.0194,-0.00013766,-2.477e-05,0.0,0 STARLINK-4524,1 53396U 22097J   22280.91667824 -.00002477  00000-0 -13766-3 0  9991,2 53396  53.2183 330.0714 0002049  32.3344 262.0194 15.08823924  1302,6917.93,95.439,541.212,538.377,0.0
53396.0,STARLINK-4524,PAYLOAD,2022-10-08 14:00:01,15.0879483,0.0002254,53.218,327.0804,28.7192,288.8092,0.0041372,0.00066093,0.0,0 STARLINK-4524,1 53396U 22097J   22281.58334491  .00066093  00000-0  41372-2 0  9991,2 53396  53.2180 327.0804 0002254  28.7192 288.8092 15.08794830  1309,6918.018,95.44,541.443,538.3240000000002,0.0
53396.0,STARLINK-4524,PAYLOAD,2022-10-08 22:00:00,15.08836472,0.000206,53.218,325.5823,30.4168,298.6881,6.8883e-05,8.08e-06,0.0,0 STARLINK-4524,1 53396U 22097J   22281.91667824  .00000808  00000-0  68883-4 0  9997,2 53396  53.2180 325.5823 0002060  30.4168 298.6881 15.08836472  1305,6917.891,95.438,541.181,538.331,0.0
53396.0,STARLINK-4524,PAYLOAD,2022-10-09 14:00:01,15.08841851,0.0002283,53.2179,322.5912,26.9523,325.3406,0.0012925,0.00020343,0.0,0 STARLINK-4524,1 53396U 22097J   22282.58334491  .00020343  00000-0  12925-2 0  9992,2 53396  53.2179 322.5912 0002283  26.9523 325.3406 15.08841851  1309,6917.875,95.437,541.319,538.16,0.0
53396.0,STARLINK-4524,PAYLOAD,2022-10-09 22:00:00,15.08833849,0.0002112,53.2181,321.093,29.7117,334.1959,0.00037743,5.723e-05,0.0,0 STARLINK-4524,1 53396U 22097J   22282.91667824  .00005723  00000-0  37743-3 0  9999,2 53396  53.2181 321.0930 0002112  29.7117 334.1959 15.08833849  1306,6917.899,95.438,541.225,538.303,0.0
53396.0,STARLINK-4524,PAYLOAD,2022-10-10 08:00:01,15.08850536,0.0002304,53.2182,319.2243,31.6702,76.7245,-0.00046489,-7.682e-05,0.0,0 STARLINK-4524,1 53396U 22097J   22283.33334491 -.00007682  00000-0 -46489-3 0  9992,2 53396  53.2182 319.2243 0002304  31.6702  76.7245 15.08850536  9866,6917.848000000001,95.437,541.307,538.119,0.0
53396.0,STARLINK-4524,PAYLOAD,2022-10-10 14:00:01,15.08902215,0.000233,53.2177,318.1033,28.8153,358.2745,-0.01235,-0.00191986,0.0,0 STARLINK-4524,1 53396U 22097J   22283.58334491 -.00191986  00000-0 -12350-1 0  9998,2 53396  53.2177 318.1033 0002330  28.8153 358.2745 15.08902215  1308,6917.69,95.434,541.1669999999998,537.943,0.0
